{"fetched_at":"2026-07-07T18:29:38.360Z","source":"https://celestrak.org/NORAD/elements/gp.php?NAME=NUSAT&FORMAT=JSON","constellation":"satellogic","records":[{"OBJECT_NAME":"NUSAT-26 (M SOMERVILLE)","OBJECT_ID":"2022-033AD","EPOCH":"2026-07-07T11:32:36.651264","CLASSIFICATION_TYPE":"U","MEAN_MOTION":15.43048368,"ECCENTRICITY":0.0006499,"INCLINATION":97.2336,"RA_OF_ASC_NODE":267.4136,"ARG_OF_PERICENTER":161.0984,"MEAN_ANOMALY":199.0507,"EPHEMERIS_TYPE":0,"NORAD_CAT_ID":52184,"ELEMENT_SET_NO":999,"REV_AT_EPOCH":10783,"BSTAR":0.00044402,"MEAN_MOTION_DOT":0.00019553,"MEAN_MOTION_DDOT":0},{"OBJECT_NAME":"NUSAT-33 (ALBANIA-2)","OBJECT_ID":"2023-001AQ","EPOCH":"2026-07-07T12:16:27.531264","CLASSIFICATION_TYPE":"U","MEAN_MOTION":15.28174716,"ECCENTRICITY":0.0005489,"INCLINATION":97.3058,"RA_OF_ASC_NODE":249.0289,"ARG_OF_PERICENTER":347.9514,"MEAN_ANOMALY":12.1593,"EPHEMERIS_TYPE":0,"NORAD_CAT_ID":55047,"ELEMENT_SET_NO":999,"REV_AT_EPOCH":19541,"BSTAR":0.0002368,"MEAN_MOTION_DOT":0.00006432,"MEAN_MOTION_DDOT":0},{"OBJECT_NAME":"NUSAT-35 (WILLIAMINA)","OBJECT_ID":"2023-001AR","EPOCH":"2026-07-07T11:57:29.695968","CLASSIFICATION_TYPE":"U","MEAN_MOTION":15.35685305,"ECCENTRICITY":0.0011385,"INCLINATION":97.184,"RA_OF_ASC_NODE":240.7352,"ARG_OF_PERICENTER":37.0753,"MEAN_ANOMALY":323.1275,"EPHEMERIS_TYPE":0,"NORAD_CAT_ID":55048,"ELEMENT_SET_NO":999,"REV_AT_EPOCH":19552,"BSTAR":0.00027744,"MEAN_MOTION_DOT":0.00009571,"MEAN_MOTION_DDOT":0},{"OBJECT_NAME":"NUSAT-39 (TIKVAH ALPER)","OBJECT_ID":"2023-054Z","EPOCH":"2026-07-07T13:08:45.174048","CLASSIFICATION_TYPE":"U","MEAN_MOTION":15.47724288,"ECCENTRICITY":0.0003082,"INCLINATION":97.3095,"RA_OF_ASC_NODE":98.4991,"ARG_OF_PERICENTER":1.5369,"MEAN_ANOMALY":358.5891,"EPHEMERIS_TYPE":0,"NORAD_CAT_ID":56201,"ELEMENT_SET_NO":999,"REV_AT_EPOCH":18160,"BSTAR":0.00038986,"MEAN_MOTION_DOT":0.00020115,"MEAN_MOTION_DDOT":0},{"OBJECT_NAME":"NUSAT-38 (MARIA AGNESI)","OBJECT_ID":"2023-054AA","EPOCH":"2026-07-07T13:23:40.177824","CLASSIFICATION_TYPE":"U","MEAN_MOTION":15.50848559,"ECCENTRICITY":0.0010149,"INCLINATION":97.3035,"RA_OF_ASC_NODE":99.2149,"ARG_OF_PERICENTER":358.3663,"MEAN_ANOMALY":1.7554,"EPHEMERIS_TYPE":0,"NORAD_CAT_ID":56202,"ELEMENT_SET_NO":999,"REV_AT_EPOCH":18166,"BSTAR":0.0004066,"MEAN_MOTION_DOT":0.00023467,"MEAN_MOTION_DDOT":0},{"OBJECT_NAME":"NUSAT-37 (JOAN CLARKE)","OBJECT_ID":"2023-054AB","EPOCH":"2026-07-07T12:41:10.461984","CLASSIFICATION_TYPE":"U","MEAN_MOTION":15.59075541,"ECCENTRICITY":0.0006706,"INCLINATION":97.2607,"RA_OF_ASC_NODE":96.0129,"ARG_OF_PERICENTER":166.2291,"MEAN_ANOMALY":193.915,"EPHEMERIS_TYPE":0,"NORAD_CAT_ID":56203,"ELEMENT_SET_NO":999,"REV_AT_EPOCH":18181,"BSTAR":0.00046425,"MEAN_MOTION_DOT":0.00036239,"MEAN_MOTION_DDOT":0},{"OBJECT_NAME":"NUSAT-40 (C SHOEMAKER)","OBJECT_ID":"2023-084M","EPOCH":"2026-07-07T09:04:42.190176","CLASSIFICATION_TYPE":"U","MEAN_MOTION":15.80743307,"ECCENTRICITY":0.0004469,"INCLINATION":97.486,"RA_OF_ASC_NODE":336.5542,"ARG_OF_PERICENTER":200.5358,"MEAN_ANOMALY":159.5731,"EPHEMERIS_TYPE":0,"NORAD_CAT_ID":56943,"ELEMENT_SET_NO":999,"REV_AT_EPOCH":17199,"BSTAR":0.00056159,"MEAN_MOTION_DOT":0.00108475,"MEAN_MOTION_DDOT":0},{"OBJECT_NAME":"NUSAT-41 (C PAYNE-G)","OBJECT_ID":"2023-084N","EPOCH":"2026-07-07T12:44:34.620864","CLASSIFICATION_TYPE":"U","MEAN_MOTION":15.30044037,"ECCENTRICITY":0.0005926,"INCLINATION":97.5539,"RA_OF_ASC_NODE":325.5721,"ARG_OF_PERICENTER":241.7328,"MEAN_ANOMALY":118.3314,"EPHEMERIS_TYPE":0,"NORAD_CAT_ID":56944,"ELEMENT_SET_NO":999,"REV_AT_EPOCH":17089,"BSTAR":0.00026901,"MEAN_MOTION_DOT":0.00007748,"MEAN_MOTION_DDOT":0},{"OBJECT_NAME":"NUSAT-42 (M WONENBURGER)","OBJECT_ID":"2023-084AL","EPOCH":"2026-07-07T11:48:24.275232","CLASSIFICATION_TYPE":"U","MEAN_MOTION":15.4627505,"ECCENTRICITY":0.0006274,"INCLINATION":97.5741,"RA_OF_ASC_NODE":333.4648,"ARG_OF_PERICENTER":170.7374,"MEAN_ANOMALY":189.3991,"EPHEMERIS_TYPE":0,"NORAD_CAT_ID":56966,"ELEMENT_SET_NO":999,"REV_AT_EPOCH":17121,"BSTAR":0.00033148,"MEAN_MOTION_DOT":0.00016251,"MEAN_MOTION_DDOT":0},{"OBJECT_NAME":"NUSAT-44 (MARIA MITCHELL)","OBJECT_ID":"2024-043AA","EPOCH":"2026-07-07T10:04:34.798944","CLASSIFICATION_TYPE":"U","MEAN_MOTION":15.30080066,"ECCENTRICITY":0.0006859,"INCLINATION":97.5474,"RA_OF_ASC_NODE":328.9933,"ARG_OF_PERICENTER":157.8047,"MEAN_ANOMALY":202.3491,"EPHEMERIS_TYPE":0,"NORAD_CAT_ID":59122,"ELEMENT_SET_NO":999,"REV_AT_EPOCH":13036,"BSTAR":0.00026194,"MEAN_MOTION_DOT":0.00007552,"MEAN_MOTION_DDOT":0},{"OBJECT_NAME":"NUSAT-50 (NANCY ROMAN)","OBJECT_ID":"2024-149AB","EPOCH":"2026-07-07T04:20:38.011200","CLASSIFICATION_TYPE":"U","MEAN_MOTION":15.30223041,"ECCENTRICITY":0.000473,"INCLINATION":97.3778,"RA_OF_ASC_NODE":269.3014,"ARG_OF_PERICENTER":121.0108,"MEAN_ANOMALY":239.1598,"EPHEMERIS_TYPE":0,"NORAD_CAT_ID":60493,"ELEMENT_SET_NO":999,"REV_AT_EPOCH":10518,"BSTAR":0.0002451,"MEAN_MOTION_DOT":0.00007093,"MEAN_MOTION_DDOT":0},{"OBJECT_NAME":"NUSAT-48 (HENRIETTA LEAVITT)","OBJECT_ID":"2024-149AG","EPOCH":"2026-07-06T04:31:58.795680","CLASSIFICATION_TYPE":"U","MEAN_MOTION":15.30170218,"ECCENTRICITY":0.00039678,"INCLINATION":97.391,"RA_OF_ASC_NODE":268.5926,"ARG_OF_PERICENTER":187.0344,"MEAN_ANOMALY":173.0842,"EPHEMERIS_TYPE":0,"NORAD_CAT_ID":60498,"ELEMENT_SET_NO":999,"REV_AT_EPOCH":10504,"BSTAR":0.00032447524,"MEAN_MOTION_DOT":0.000094,"MEAN_MOTION_DDOT":0},{"OBJECT_NAME":"NUSAT-49 (KLARA DAN VON NEUMANN)","OBJECT_ID":"2024-149AJ","EPOCH":"2026-07-07T11:21:58.641696","CLASSIFICATION_TYPE":"U","MEAN_MOTION":15.30295166,"ECCENTRICITY":0.0001712,"INCLINATION":97.3771,"RA_OF_ASC_NODE":269.6243,"ARG_OF_PERICENTER":185.7883,"MEAN_ANOMALY":174.3338,"EPHEMERIS_TYPE":0,"NORAD_CAT_ID":60500,"ELEMENT_SET_NO":999,"REV_AT_EPOCH":10523,"BSTAR":0.00020327,"MEAN_MOTION_DOT":0.0000588,"MEAN_MOTION_DDOT":0},{"OBJECT_NAME":"NUSAT-45 (UZMASAT-1)","OBJECT_ID":"2025-009AH","EPOCH":"2026-07-07T04:49:31.310976","CLASSIFICATION_TYPE":"U","MEAN_MOTION":15.30290389,"ECCENTRICITY":0.0001051,"INCLINATION":97.3582,"RA_OF_ASC_NODE":269.2219,"ARG_OF_PERICENTER":206.7958,"MEAN_ANOMALY":153.3229,"EPHEMERIS_TYPE":0,"NORAD_CAT_ID":62640,"ELEMENT_SET_NO":999,"REV_AT_EPOCH":8198,"BSTAR":0.00020765,"MEAN_MOTION_DOT":0.00006008,"MEAN_MOTION_DDOT":0},{"OBJECT_NAME":"NUSAT-52","OBJECT_ID":"2025-276AC","EPOCH":"2026-07-07T03:54:08.864640","CLASSIFICATION_TYPE":"U","MEAN_MOTION":15.19985034,"ECCENTRICITY":0.0001977,"INCLINATION":97.4197,"RA_OF_ASC_NODE":261.3805,"ARG_OF_PERICENTER":330.8162,"MEAN_ANOMALY":29.2962,"EPHEMERIS_TYPE":0,"NORAD_CAT_ID":66692,"ELEMENT_SET_NO":999,"REV_AT_EPOCH":3345,"BSTAR":0.00019327,"MEAN_MOTION_DOT":0.00004093,"MEAN_MOTION_DDOT":0},{"OBJECT_NAME":"NUSAT-51 (YVONNE BRILL)","OBJECT_ID":"2025-276CC","EPOCH":"2026-07-07T10:18:53.150976","CLASSIFICATION_TYPE":"U","MEAN_MOTION":15.2050665,"ECCENTRICITY":0.0001565,"INCLINATION":97.4201,"RA_OF_ASC_NODE":261.7796,"ARG_OF_PERICENTER":289.2376,"MEAN_ANOMALY":70.869,"EPHEMERIS_TYPE":0,"NORAD_CAT_ID":66740,"ELEMENT_SET_NO":999,"REV_AT_EPOCH":3350,"BSTAR":0.00021027,"MEAN_MOTION_DOT":0.00004527,"MEAN_MOTION_DDOT":0}]}
