NUSAT-26 (M SOMERVILLE) 
1 52184U 22033AD  26188.48097976  .00019553  00000+0  44402-3 0  9994
2 52184  97.2336 267.4136 0006499 161.0984 199.0507 15.43048368107830
NUSAT-33 (ALBANIA-2)    
1 55047U 23001AQ  26188.51142976  .00006432  00000+0  23680-3 0  9993
2 55047  97.3058 249.0289 0005489 347.9514  12.1593 15.28174716195411
NUSAT-35 (WILLIAMINA)   
1 55048U 23001AR  26188.49826037  .00009571  00000+0  27744-3 0  9990
2 55048  97.1840 240.7352 0011385  37.0753 323.1275 15.35685305195525
NUSAT-39 (TIKVAH ALPER) 
1 56201U 23054Z   26188.54774507  .00020115  00000+0  38986-3 0  9997
2 56201  97.3095  98.4991 0003082   1.5369 358.5891 15.47724288181609
NUSAT-38 (MARIA AGNESI) 
1 56202U 23054AA  26188.55810391  .00023467  00000+0  40660-3 0  9996
2 56202  97.3035  99.2149 0010149 358.3663   1.7554 15.50848559181661
NUSAT-37 (JOAN CLARKE)  
1 56203U 23054AB  26188.52859331  .00036239  00000+0  46425-3 0  9997
2 56203  97.2607  96.0129 0006706 166.2291 193.9150 15.59075541181811
NUSAT-40 (C SHOEMAKER)  
1 56943U 23084M   26188.37826609  .00108475  00000+0  56159-3 0  9993
2 56943  97.4860 336.5542 0004469 200.5358 159.5731 15.80743307171993
NUSAT-41 (C PAYNE-G)    
1 56944U 23084N   26188.53095626  .00007748  00000+0  26901-3 0  9992
2 56944  97.5539 325.5721 0005926 241.7328 118.3314 15.30044037170895
NUSAT-42 (M WONENBURGER)
1 56966U 23084AL  26188.49194763  .00016251  00000+0  33148-3 0  9993
2 56966  97.5741 333.4648 0006274 170.7374 189.3991 15.46275050171213
NUSAT-44 (MARIA MITCHE*)
1 59122U 24043AA  26188.41984721  .00007552  00000+0  26194-3 0  9996
2 59122  97.5474 328.9933 0006859 157.8047 202.3491 15.30080066130367
NUSAT-50 (NANCY ROMAN)  
1 60493U 24149AB  26188.18099550  .00007093  00000+0  24510-3 0  9997
2 60493  97.3778 269.3014 0004730 121.0108 239.1598 15.30223041105180
NUSAT-48 (HENRIETTA LE*)
1 60498U 24149AG  26187.18887495  .00009400  00000+0  32448-3 0  9997
2 60498  97.3910 268.5926 0003967 187.0344 173.0842 15.30170218105041
NUSAT-49 (KLARA DAN VO*)
1 60500U 24149AJ  26188.47359539  .00005880  00000+0  20327-3 0  9998
2 60500  97.3771 269.6243 0001712 185.7883 174.3338 15.30295166105238
NUSAT-45 (UZMASAT-1)    
1 62640U 25009AH  26188.20105684  .00006008  00000+0  20765-3 0  9991
2 62640  97.3582 269.2219 0001051 206.7958 153.3229 15.30290389 81980
NUSAT-52                
1 66692U 25276AC  26188.16260260  .00004093  00000+0  19327-3 0  9999
2 66692  97.4197 261.3805 0001977 330.8162  29.2962 15.19985034 33450
NUSAT-51 (YVONNE BRILL) 
1 66740U 25276CC  26188.42978184  .00004527  00000+0  21027-3 0  9995
2 66740  97.4201 261.7796 0001565 289.2376  70.8690 15.20506650 33501
